[{"OBJECT_NAME":"OBJECT C","OBJECT_ID":"2023-091C","EPOCH":"2026-03-09T22:19:51.473568","MEAN_MOTION":15.24718365,"ECCENTRICITY":0.0013257,"INCLINATION":97.5143,"RA_OF_ASC_NODE":130.8747,"ARG_OF_PERICENTER":96.9232,"MEAN_ANOMALY":263.3514,"EPHEMERIS_TYPE":0,"CLASSIFICATION_TYPE":"U","NORAD_CAT_ID":57168,"ELEMENT_SET_NO":999,"REV_AT_EPOCH":14912,"BSTAR":0.00051490472,"MEAN_MOTION_DOT":0.00012709,"MEAN_MOTION_DDOT":0},{"OBJECT_NAME":"STARLINK-30287","OBJECT_ID":"2023-129M","EPOCH":"2026-03-09T03:42:02.676960","MEAN_MOTION":15.26742719,"ECCENTRICITY":0.00018099,"INCLINATION":43.0029,"RA_OF_ASC_NODE":120.6792,"ARG_OF_PERICENTER":270.9354,"MEAN_ANOMALY":89.129,"EPHEMERIS_TYPE":0,"CLASSIFICATION_TYPE":"U","NORAD_CAT_ID":57709,"ELEMENT_SET_NO":999,"REV_AT_EPOCH":14060,"BSTAR":2.6508797e-5,"MEAN_MOTION_DOT":4.51e-6,"MEAN_MOTION_DDOT":0}]
